[
    {
        "Altitude(m)": 715644.0620371941,
        "Argument of Periapsis(deg)": 0.0011390121186627068,
        "Eccentricity": 0.0,
        "Inclination(deg)": 45.0,
        "Latitude(deg)": -39.75034286192351,
        "Longitude(deg)": 179.133972588211,
        "Mean Anomaly(deg)": -64.30117833525188,
        "RAAN(deg)": 334.9989248058542,
        "Satellite Name": "Constellation 1 1492",
        "Satellite Number": 1492,
        "Semi-Major Axis(m)": 7083131.272910544,
        "Time(s)": 19
    },
    {
        "Altitude(m)": 715634.0629666399,
        "Argument of Periapsis(deg)": 0.0011989601249081123,
        "Eccentricity": 0.0,
        "Inclination(deg)": 45.0,
        "Latitude(deg)": -39.72619619841886,
        "Longitude(deg)": 179.20196217511725,
        "Mean Anomaly(deg)": -64.240477195002,
        "RAAN(deg)": 334.9988682166886,
        "Satellite Name": "Constellation 1 1492",
        "Satellite Number": 1492,
        "Semi-Major Axis(m)": 7083131.272910544,
        "Time(s)": 20
    },
    {
        "Altitude(m)": 715624.0457348543,
        "Argument of Periapsis(deg)": 0.001258908131153518,
        "Eccentricity": 0.0,
        "Inclination(deg)": 45.0,
        "Latitude(deg)": -39.70200467237844,
        "Longitude(deg)": 179.2699015688218,
        "Mean Anomaly(deg)": -64.17977605475217,
        "RAAN(deg)": 334.9988116275231,
        "Satellite Name": "Constellation 1 1492",
        "Satellite Number": 1492,
        "Semi-Major Axis(m)": 7083131.272910544,
        "Time(s)": 21
    },
    {
        "Altitude(m)": 715614.0103783396,
        "Argument of Periapsis(deg)": 0.0013188561373989236,
        "Eccentricity": 0.0,
        "Inclination(deg)": 45.0,
        "Latitude(deg)": -39.67776835249388,
        "Longitude(deg)": 179.33779058656452,
        "Mean Anomaly(deg)": -64.11907491450222,
        "RAAN(deg)": 334.9987550383575,
        "Satellite Name": "Constellation 1 1492",
        "Satellite Number": 1492,
        "Semi-Major Axis(m)": 7083131.272910544,
        "Time(s)": 22
    },
    {
        "Altitude(m)": 715603.956933658,
        "Argument of Periapsis(deg)": 0.0013788041436443293,
        "Eccentricity": 0.0,
        "Inclination(deg)": 45.0,
        "Latitude(deg)": -39.65348730745771,
        "Longitude(deg)": 179.4056295503076,
        "Mean Anomaly(deg)": -64.05837377425229,
        "RAAN(deg)": 334.998698449192,
        "Satellite Name": "Constellation 1 1492",
        "Satellite Number": 1492,
        "Semi-Major Axis(m)": 7083131.272910544,
        "Time(s)": 23
    },
    {
        "Altitude(m)": 715593.8854374395,
        "Argument of Periapsis(deg)": 0.001438752149889735,
        "Eccentricity": 0.0,
        "Inclination(deg)": 45.0,
        "Latitude(deg)": -39.62916160596105,
        "Longitude(deg)": 179.47341827815268,
        "Mean Anomaly(deg)": -63.99767263400245,
        "RAAN(deg)": 334.99864186002634,
        "Satellite Name": "Constellation 1 1492",
        "Satellite Number": 1492,
        "Semi-Major Axis(m)": 7083131.272910544,
        "Time(s)": 24
    },
    {
        "Altitude(m)": 715583.7959263772,
        "Argument of Periapsis(deg)": 0.0014987001561351404,
        "Eccentricity": 0.0,
        "Inclination(deg)": 45.0,
        "Latitude(deg)": -39.60479131669395,
        "Longitude(deg)": 179.54115675672801,
        "Mean Anomaly(deg)": -63.936971493752516,
        "RAAN(deg)": 334.99858527086076,
        "Satellite Name": "Constellation 1 1492",
        "Satellite Number": 1492,
        "Semi-Major Axis(m)": 7083131.272910544,
        "Time(s)": 25
    },
    {
        "Altitude(m)": 715573.6884372265,
        "Argument of Periapsis(deg)": 0.001558648162380546,
        "Eccentricity": 0.0,
        "Inclination(deg)": 45.0,
        "Latitude(deg)": -39.58037650834489,
        "Longitude(deg)": 179.6088449730892,
        "Mean Anomaly(deg)": -63.876270353502576,
        "RAAN(deg)": 334.99852868169523,
        "Satellite Name": "Constellation 1 1492",
        "Satellite Number": 1492,
        "Semi-Major Axis(m)": 7083131.272910544,
        "Time(s)": 26
    },
    {
        "Altitude(m)": 715563.5630068117,
        "Argument of Periapsis(deg)": 0.0016185961686259519,
        "Eccentricity": 0.0,
        "Inclination(deg)": 45.0,
        "Latitude(deg)": -39.555917249599915,
        "Longitude(deg)": 179.67648291471798,
        "Mean Anomaly(deg)": -63.815569213252644,
        "RAAN(deg)": 334.99847209252965,
        "Satellite Name": "Constellation 1 1492",
        "Satellite Number": 1492,
        "Semi-Major Axis(m)": 7083131.272910544,
        "Time(s)": 27
    },
    {
        "Altitude(m)": 715553.4196720052,
        "Argument of Periapsis(deg)": 0.0016785441748713573,
        "Eccentricity": 0.0,
        "Inclination(deg)": 45.0,
        "Latitude(deg)": -39.5314136091423,
        "Longitude(deg)": 179.74407056952114,
        "Mean Anomaly(deg)": -63.75486807300286,
        "RAAN(deg)": 334.99841550336413,
        "Satellite Name": "Constellation 1 1492",
        "Satellite Number": 1492,
        "Semi-Major Axis(m)": 7083131.272910544,
        "Time(s)": 28
    },
    {
        "Altitude(m)": 715543.2584697512,
        "Argument of Periapsis(deg)": 0.001738492181116763,
        "Eccentricity": 0.0,
        "Inclination(deg)": 45.0,
        "Latitude(deg)": -39.506865655651595,
        "Longitude(deg)": 179.8116079258298,
        "Mean Anomaly(deg)": -63.694166932752914,
        "RAAN(deg)": 334.9983589141985,
        "Satellite Name": "Constellation 1 1492",
        "Satellite Number": 1492,
        "Semi-Major Axis(m)": 7083131.272910544,
        "Time(s)": 29
    },
    {
        "Altitude(m)": 715533.0794370654,
        "Argument of Periapsis(deg)": 0.0017984401873621684,
        "Eccentricity": 0.0,
        "Inclination(deg)": 45.0,
        "Latitude(deg)": -39.482273457803174,
        "Longitude(deg)": 179.8790948042994,
        "Mean Anomaly(deg)": -63.63346579250303,
        "RAAN(deg)": 334.9983023250329,
        "Satellite Name": "Constellation 1 1492",
        "Satellite Number": 1492,
        "Semi-Major Axis(m)": 7083131.272910544,
        "Time(s)": 30
    },
    {
        "Altitude(m)": 715522.8826110032,
        "Argument of Periapsis(deg)": 0.0018583881936075745,
        "Eccentricity": 0.0,
        "Inclination(deg)": 45.0,
        "Latitude(deg)": -39.4576370842687,
        "Longitude(deg)": 179.94653153029782,
        "Mean Anomaly(deg)": -63.57276465225314,
        "RAAN(deg)": 334.9982457358674,
        "Satellite Name": "Constellation 1 1492",
        "Satellite Number": 1492,
        "Semi-Major Axis(m)": 7083131.272910544,
        "Time(s)": 31
    },
    {
        "Altitude(m)": 715512.6680287041,
        "Argument of Periapsis(deg)": 0.0019183361998529795,
        "Eccentricity": 0.0,
        "Inclination(deg)": 45.0,
        "Latitude(deg)": -39.432956603713606,
        "Longitude(deg)": -179.9860820746786,
        "Mean Anomaly(deg)": -63.51206351200321,
        "RAAN(deg)": 334.9981891467018,
        "Satellite Name": "Constellation 1 1492",
        "Satellite Number": 1492,
        "Semi-Major Axis(m)": 7083131.272910544,
        "Time(s)": 32
    },
    {
        "Altitude(m)": 715502.4357273593,
        "Argument of Periapsis(deg)": 0.0019782842060983856,
        "Eccentricity": 0.0,
        "Inclination(deg)": 45.0,
        "Latitude(deg)": -39.408232084797966,
        "Longitude(deg)": -179.91874602061856,
        "Mean Anomaly(deg)": -63.45136237175327,
        "RAAN(deg)": 334.9981325575363,
        "Satellite Name": "Constellation 1 1492",
        "Satellite Number": 1492,
        "Semi-Major Axis(m)": 7083131.272910544,
        "Time(s)": 33
    },
    {
        "Altitude(m)": 715492.185744221,
        "Argument of Periapsis(deg)": 0.0020382322123437906,
        "Eccentricity": 0.0,
        "Inclination(deg)": 45.0,
        "Latitude(deg)": -39.38346359617562,
        "Longitude(deg)": -179.85146031709394,
        "Mean Anomaly(deg)": -63.39066123150344,
        "RAAN(deg)": 334.99807596837064,
        "Satellite Name": "Constellation 1 1492",
        "Satellite Number": 1492,
        "Semi-Major Axis(m)": 7083131.272910544,
        "Time(s)": 34
    },
    {
        "Altitude(m)": 715481.9181166121,
        "Argument of Periapsis(deg)": 0.002098180218589197,
        "Eccentricity": 0.0,
        "Inclination(deg)": 45.0,
        "Latitude(deg)": -39.35865120649331,
        "Longitude(deg)": -179.78422497326125,
        "Mean Anomaly(deg)": -63.329960091253504,
        "RAAN(deg)": 334.99801937920506,
        "Satellite Name": "Constellation 1 1492",
        "Satellite Number": 1492,
        "Semi-Major Axis(m)": 7083131.272910544,
        "Time(s)": 35
    },
    {
        "Altitude(m)": 715471.6328819065,
        "Argument of Periapsis(deg)": 0.002158128224834602,
        "Eccentricity": 0.0,
        "Inclination(deg)": 45.0,
        "Latitude(deg)": -39.33379498439053,
        "Longitude(deg)": -179.7170399978627,
        "Mean Anomaly(deg)": -63.26925895100356,
        "RAAN(deg)": 334.99796279003954,
        "Satellite Name": "Constellation 1 1492",
        "Satellite Number": 1492,
        "Semi-Major Axis(m)": 7083131.272910544,
        "Time(s)": 36
    },
    {
        "Altitude(m)": 715461.3300775407,
        "Argument of Periapsis(deg)": 0.002218076231080008,
        "Eccentricity": 0.0,
        "Inclination(deg)": 45.0,
        "Latitude(deg)": -39.30889499849845,
        "Longitude(deg)": -179.6499055673256,
        "Mean Anomaly(deg)": -63.208557810753724,
        "RAAN(deg)": 334.99790620087396,
        "Satellite Name": "Constellation 1 1492",
        "Satellite Number": 1492,
        "Semi-Major Axis(m)": 7083131.272910544,
        "Time(s)": 37
    }
]